[{"OBJECT_NAME":"LIDE","OBJECT_ID":"2025-154A","EPOCH":"2026-03-09T17:40:09.364800","MEAN_MOTION":14.93720025,"ECCENTRICITY":0.00054258,"INCLINATION":97.682,"RA_OF_ASC_NODE":134.8153,"ARG_OF_PERICENTER":185.342,"MEAN_ANOMALY":174.7743,"EPHEMERIS_TYPE":0,"CLASSIFICATION_TYPE":"U","NORAD_CAT_ID":64869,"ELEMENT_SET_NO":999,"REV_AT_EPOCH":3415,"BSTAR":0.00043353011,"MEAN_MOTION_DOT":4.535e-5,"MEAN_MOTION_DDOT":0},{"OBJECT_NAME":"COSMOS 2251 DEB","OBJECT_ID":"1993-036AWS","EPOCH":"2026-03-08T21:06:04.726368","MEAN_MOTION":14.95261151,"ECCENTRICITY":0.00284276,"INCLINATION":73.9951,"RA_OF_ASC_NODE":273.3001,"ARG_OF_PERICENTER":6.025,"MEAN_ANOMALY":354.1269,"EPHEMERIS_TYPE":0,"CLASSIFICATION_TYPE":"U","NORAD_CAT_ID":36000,"ELEMENT_SET_NO":999,"REV_AT_EPOCH":61455,"BSTAR":0.0026863031,"MEAN_MOTION_DOT":0.00029903,"MEAN_MOTION_DDOT":0}]
